[{"OBJECT_NAME":"UNKNOWN","OBJECT_ID":"","EPOCH":"2026-03-09T06:01:44.469696","MEAN_MOTION":12.47851994,"ECCENTRICITY":0.0032202,"INCLINATION":102.1686,"RA_OF_ASC_NODE":171.6277,"ARG_OF_PERICENTER":306.2218,"MEAN_ANOMALY":53.5874,"EPHEMERIS_TYPE":0,"CLASSIFICATION_TYPE":"U","NORAD_CAT_ID":81819,"ELEMENT_SET_NO":999,"REV_AT_EPOCH":55880,"BSTAR":0.0071053,"MEAN_MOTION_DOT":1.006e-5,"MEAN_MOTION_DDOT":0},{"OBJECT_NAME":"UNKNOWN","OBJECT_ID":"","EPOCH":"2026-03-08T12:01:33.278304","MEAN_MOTION":14.36452175,"ECCENTRICITY":0.0049171,"INCLINATION":65.8411,"RA_OF_ASC_NODE":102.9479,"ARG_OF_PERICENTER":291.4983,"MEAN_ANOMALY":68.0873,"EPHEMERIS_TYPE":0,"CLASSIFICATION_TYPE":"U","NORAD_CAT_ID":81824,"ELEMENT_SET_NO":999,"REV_AT_EPOCH":63690,"BSTAR":0.0020943,"MEAN_MOTION_DOT":6.149e-5,"MEAN_MOTION_DDOT":0},{"OBJECT_NAME":"UNKNOWN","OBJECT_ID":"","EPOCH":"2026-03-08T13:51:12.377376","MEAN_MOTION":12.93764115,"ECCENTRICITY":0.0026389,"INCLINATION":90.2477,"RA_OF_ASC_NODE":4.7962,"ARG_OF_PERICENTER":154.1534,"MEAN_ANOMALY":206.0909,"EPHEMERIS_TYPE":0,"CLASSIFICATION_TYPE":"U","NORAD_CAT_ID":81833,"ELEMENT_SET_NO":999,"REV_AT_EPOCH":46361,"BSTAR":0.0016817,"MEAN_MOTION_DOT":4.71e-6,"MEAN_MOTION_DDOT":0},{"OBJECT_NAME":"UNKNOWN","OBJECT_ID":"","EPOCH":"2026-03-06T22:22:03.173088","MEAN_MOTION":14.58249515,"ECCENTRICITY":0.0044901,"INCLINATION":67.7611,"RA_OF_ASC_NODE":45.99,"ARG_OF_PERICENTER":288.9362,"MEAN_ANOMALY":100.966,"EPHEMERIS_TYPE":0,"CLASSIFICATION_TYPE":"U","NORAD_CAT_ID":81838,"ELEMENT_SET_NO":999,"REV_AT_EPOCH":64560,"BSTAR":0.0019027,"MEAN_MOTION_DOT":8.849e-5,"MEAN_MOTION_DDOT":0},{"OBJECT_NAME":"UNKNOWN","OBJECT_ID":"","EPOCH":"2026-03-07T08:59:44.573280","MEAN_MOTION":14.33889308,"ECCENTRICITY":0.0060671,"INCLINATION":82.9113,"RA_OF_ASC_NODE":213.1352,"ARG_OF_PERICENTER":251.9407,"MEAN_ANOMALY":107.5167,"EPHEMERIS_TYPE":0,"CLASSIFICATION_TYPE":"U","NORAD_CAT_ID":81844,"ELEMENT_SET_NO":999,"REV_AT_EPOCH":63501,"BSTAR":0.0045611,"MEAN_MOTION_DOT":0.00012997,"MEAN_MOTION_DDOT":0},{"OBJECT_NAME":"UNKNOWN","OBJECT_ID":"","EPOCH":"2026-03-08T11:45:51.038784","MEAN_MOTION":14.85715368,"ECCENTRICITY":0.0087365,"INCLINATION":97.6779,"RA_OF_ASC_NODE":256.4518,"ARG_OF_PERICENTER":23.5839,"MEAN_ANOMALY":6.4538,"EPHEMERIS_TYPE":0,"CLASSIFICATION_TYPE":"U","NORAD_CAT_ID":81845,"ELEMENT_SET_NO":999,"REV_AT_EPOCH":66225,"BSTAR":0.00036382,"MEAN_MOTION_DOT":3.326e-5,"MEAN_MOTION_DDOT":0},{"OBJECT_NAME":"UNKNOWN","OBJECT_ID":"","EPOCH":"2026-03-07T10:45:42.474528","MEAN_MOTION":13.32766957,"ECCENTRICITY":0.0768452,"INCLINATION":65.6676,"RA_OF_ASC_NODE":228.8005,"ARG_OF_PERICENTER":336.6253,"MEAN_ANOMALY":20.1508,"EPHEMERIS_TYPE":0,"CLASSIFICATION_TYPE":"U","NORAD_CAT_ID":81864,"ELEMENT_SET_NO":999,"REV_AT_EPOCH":56212,"BSTAR":0.0004593,"MEAN_MOTION_DOT":1.157e-5,"MEAN_MOTION_DDOT":0},{"OBJECT_NAME":"UNKNOWN","OBJECT_ID":"","EPOCH":"2026-03-09T03:30:04.343904","MEAN_MOTION":13.88274854,"ECCENTRICITY":0.0062281,"INCLINATION":82.8061,"RA_OF_ASC_NODE":321.9685,"ARG_OF_PERICENTER":117.1253,"MEAN_ANOMALY":35.2702,"EPHEMERIS_TYPE":0,"CLASSIFICATION_TYPE":"U","NORAD_CAT_ID":81865,"ELEMENT_SET_NO":999,"REV_AT_EPOCH":62053,"BSTAR":0.0010736,"MEAN_MOTION_DOT":1.32e-5,"MEAN_MOTION_DDOT":0},{"OBJECT_NAME":"UNKNOWN","OBJECT_ID":"","EPOCH":"2026-03-09T09:58:48.533664","MEAN_MOTION":13.76911935,"ECCENTRICITY":0.0021879,"INCLINATION":100.0573,"RA_OF_ASC_NODE":61.544,"ARG_OF_PERICENTER":47.9719,"MEAN_ANOMALY":312.3287,"EPHEMERIS_TYPE":0,"CLASSIFICATION_TYPE":"U","NORAD_CAT_ID":81893,"ELEMENT_SET_NO":999,"REV_AT_EPOCH":61600,"BSTAR":0.0012912,"MEAN_MOTION_DOT":1.226e-5,"MEAN_MOTION_DDOT":0},{"OBJECT_NAME":"UNKNOWN","OBJECT_ID":"","EPOCH":"2026-03-08T06:29:59.000064","MEAN_MOTION":13.20472338,"ECCENTRICITY":0.0169693,"INCLINATION":102.4115,"RA_OF_ASC_NODE":189.4901,"ARG_OF_PERICENTER":33.9798,"MEAN_ANOMALY":327.2043,"EPHEMERIS_TYPE":0,"CLASSIFICATION_TYPE":"U","NORAD_CAT_ID":81899,"ELEMENT_SET_NO":999,"REV_AT_EPOCH":59027,"BSTAR":0.0049166,"MEAN_MOTION_DOT":2.09e-5,"MEAN_MOTION_DDOT":0},{"OBJECT_NAME":"UNKNOWN","OBJECT_ID":"","EPOCH":"2026-03-03T02:04:07.928832","MEAN_MOTION":13.15432327,"ECCENTRICITY":0.0843493,"INCLINATION":65.7062,"RA_OF_ASC_NODE":230.7222,"ARG_OF_PERICENTER":79.7316,"MEAN_ANOMALY":289.7632,"EPHEMERIS_TYPE":0,"CLASSIFICATION_TYPE":"U","NORAD_CAT_ID":81921,"ELEMENT_SET_NO":999,"REV_AT_EPOCH":3635,"BSTAR":0.00080283,"MEAN_MOTION_DOT":1.918e-5,"MEAN_MOTION_DDOT":0},{"OBJECT_NAME":"UNKNOWN","OBJECT_ID":"","EPOCH":"2026-03-07T10:22:39.081792","MEAN_MOTION":12.42642894,"ECCENTRICITY":0.0677948,"INCLINATION":66.4243,"RA_OF_ASC_NODE":349.7242,"ARG_OF_PERICENTER":310.59,"MEAN_ANOMALY":161.2817,"EPHEMERIS_TYPE":0,"CLASSIFICATION_TYPE":"U","NORAD_CAT_ID":81946,"ELEMENT_SET_NO":999,"REV_AT_EPOCH":55840,"BSTAR":0.00046517,"MEAN_MOTION_DOT":9.0e-7,"MEAN_MOTION_DDOT":0},{"OBJECT_NAME":"UNKNOWN","OBJECT_ID":"","EPOCH":"2026-02-15T06:28:00.562080","MEAN_MOTION":14.53453444,"ECCENTRICITY":0.0369408,"INCLINATION":66.0766,"RA_OF_ASC_NODE":348.0426,"ARG_OF_PERICENTER":102.1486,"MEAN_ANOMALY":262.125,"EPHEMERIS_TYPE":0,"CLASSIFICATION_TYPE":"U","NORAD_CAT_ID":81947,"ELEMENT_SET_NO":999,"REV_AT_EPOCH":64039,"BSTAR":0.00046514,"MEAN_MOTION_DOT":4.726e-5,"MEAN_MOTION_DDOT":0},{"OBJECT_NAME":"UNKNOWN","OBJECT_ID":"","EPOCH":"2026-03-09T07:12:33.425568","MEAN_MOTION":13.95858628,"ECCENTRICITY":0.0033682,"INCLINATION":66.585,"RA_OF_ASC_NODE":43.7998,"ARG_OF_PERICENTER":17.598,"MEAN_ANOMALY":342.6258,"EPHEMERIS_TYPE":0,"CLASSIFICATION_TYPE":"U","NORAD_CAT_ID":81964,"ELEMENT_SET_NO":999,"REV_AT_EPOCH":62612,"BSTAR":0.000294,"MEAN_MOTION_DOT":3.25e-6,"MEAN_MOTION_DDOT":0},{"OBJECT_NAME":"UNKNOWN","OBJECT_ID":"","EPOCH":"2026-03-09T02:36:17.309088","MEAN_MOTION":15.13289121,"ECCENTRICITY":0.0003206,"INCLINATION":86.685,"RA_OF_ASC_NODE":115.8978,"ARG_OF_PERICENTER":174.9548,"MEAN_ANOMALY":185.1725,"EPHEMERIS_TYPE":0,"CLASSIFICATION_TYPE":"U","NORAD_CAT_ID":81969,"ELEMENT_SET_NO":999,"REV_AT_EPOCH":45322,"BSTAR":0.00076162,"MEAN_MOTION_DOT":0.00013589,"MEAN_MOTION_DDOT":0},{"OBJECT_NAME":"UNKNOWN","OBJECT_ID":"","EPOCH":"2026-03-04T23:05:58.793856","MEAN_MOTION":14.04989219,"ECCENTRICITY":0.0516129,"INCLINATION":65.7446,"RA_OF_ASC_NODE":268.6872,"ARG_OF_PERICENTER":256.6593,"MEAN_ANOMALY":97.6465,"EPHEMERIS_TYPE":0,"CLASSIFICATION_TYPE":"U","NORAD_CAT_ID":81995,"ELEMENT_SET_NO":999,"REV_AT_EPOCH":61577,"BSTAR":0.00096399,"MEAN_MOTION_DOT":5.163e-5,"MEAN_MOTION_DDOT":0},{"OBJECT_NAME":"UNKNOWN","OBJECT_ID":"","EPOCH":"2026-03-07T20:23:28.172832","MEAN_MOTION":14.33067883,"ECCENTRICITY":0.0230426,"INCLINATION":97.9377,"RA_OF_ASC_NODE":213.4789,"ARG_OF_PERICENTER":187.1871,"MEAN_ANOMALY":172.5993,"EPHEMERIS_TYPE":0,"CLASSIFICATION_TYPE":"U","NORAD_CAT_ID":82043,"ELEMENT_SET_NO":999,"REV_AT_EPOCH":58603,"BSTAR":0.0019915,"MEAN_MOTION_DOT":7.3e-5,"MEAN_MOTION_DDOT":0}]
