UNKNOWN                 
1 81819U          26068.25120914  .00001006  00000+0  71053-2 0  9997
2 81819 102.1686 171.6277 0032202 306.2218  53.5874 12.47851994558803
UNKNOWN                 
1 81824U          26067.50107961  .00006149  00000+0  20943-2 0  9992
2 81824  65.8411 102.9479 0049171 291.4983  68.0873 14.36452175636904
UNKNOWN                 
1 81833U          26067.57722659  .00000471  00000+0  16817-2 0  9993
2 81833  90.2477   4.7962 0026389 154.1534 206.0909 12.93764115463618
UNKNOWN                 
1 81838U          26065.93198117  .00008849  00000+0  19027-2 0  9995
2 81838  67.7611  45.9900 0044901 288.9362 100.9660 14.58249515645608
UNKNOWN                 
1 81844U          26066.37482145  .00012997  00000+0  45611-2 0  9995
2 81844  82.9113 213.1352 0060671 251.9407 107.5167 14.33889308635015
UNKNOWN                 
1 81845U          26067.49017406  .00003326  00000+0  36382-3 0  9996
2 81845  97.6779 256.4518 0087365  23.5839   6.4538 14.85715368662258
UNKNOWN                 
1 81864U          26066.44840827  .00001157  00000+0  45930-3 0  9991
2 81864  65.6676 228.8005 0768452 336.6253  20.1508 13.32766957562121
UNKNOWN                 
1 81865U          26068.14588361  .00001320  00000+0  10736-2 0  9990
2 81865  82.8061 321.9685 0062281 117.1253  35.2702 13.88274854620533
UNKNOWN                 
1 81893U          26068.41583951  .00001226  00000+0  12912-2 0  9994
2 81893 100.0573  61.5440 0021879  47.9719 312.3287 13.76911935616005
UNKNOWN                 
1 81899U          26067.27082176  .00002090  00000+0  49166-2 0  9997
2 81899 102.4115 189.4901 0169693  33.9798 327.2043 13.20472338590273
UNKNOWN                 
1 81921U          26062.08620288  .00001918  00000+0  80283-3 0  9993
2 81921  65.7062 230.7222 0843493  79.7316 289.7632 13.15432327 36356
UNKNOWN                 
1 81946U          26066.43239678  .00000090  00000+0  46517-3 0  9994
2 81946  66.4243 349.7242 0677948 310.5900 161.2817 12.42642894558405
UNKNOWN                 
1 81947U          26046.26945095  .00004726  00000+0  46514-3 0  9998
2 81947  66.0766 348.0426 0369408 102.1486 262.1250 14.53453444640398
UNKNOWN                 
1 81964U          26068.30038687  .00000325  00000+0  29400-3 0  9992
2 81964  66.5850  43.7998 0033682  17.5980 342.6258 13.95858628626124
UNKNOWN                 
1 81969U          26068.10853367  .00013589  00000+0  76162-3 0  9998
2 81969  86.6850 115.8978 0003206 174.9548 185.1725 15.13289121453224
UNKNOWN                 
1 81995U          26063.96248604  .00005163  00000+0  96399-3 0  9991
2 81995  65.7446 268.6872 0516129 256.6593  97.6465 14.04989219615775
UNKNOWN                 
1 82043U          26066.84963163  .00007300  00000+0  19915-2 0  9993
2 82043  97.9377 213.4789 0230426 187.1871 172.5993 14.33067883586036
